{
    "locationEntityList": [
        {
          "id": "635006bd3824a9c294ad6425",
          "postal_code": "04001",
          "city": "Almeria",
          "region": "Andalucia",
          "province": "Almeria"
        },
        {
          "id": "635006bd3824a9c294ad6426",
          "postal_code": "04002",
          "city": "Almeria",
          "region": "Andalucia",
          "province": "Almeria"
        },
        {
          "id": "635006bd3824a9c294ad6427",
          "postal_code": "04002",
          "city": "El Palmer",
          "region": "Andalucia",
          "province": "Almeria"
        },
        {
          "id": "635006bd3824a9c294ad6428",
          "postal_code": "04003",
          "city": "Almeria",
          "region": "Andalucia",
          "province": "Almeria"
        },
        {
          "id": "635006bd3824a9c294ad6429",
          "postal_code": "04004",
          "city": "Almeria",
          "region": "Andalucia",
          "province": "Almeria"
        },
        {
          "id": "635006bd3824a9c294ad642a",
          "postal_code": "04005",
          "city": "Almeria",
          "region": "Andalucia",
          "province": "Almeria"
        },
        {
          "id": "635006bd3824a9c294ad642b",
          "postal_code": "04006",
          "city": "Almeria",
          "region": "Andalucia",
          "province": "Almeria"
        },
        {
          "id": "635006bd3824a9c294ad642c",
          "postal_code": "04007",
          "city": "Almeria",
          "region": "Andalucia",
          "province": "Almeria"
        },
        {
          "id": "635006bd3824a9c294ad642d",
          "postal_code": "04008",
          "city": "Almeria",
          "region": "Andalucia",
          "province": "Almeria"
        },
        {
          "id": "635006bd3824a9c294ad642e",
          "postal_code": "04009",
          "city": "Almeria",
          "region": "Andalucia",
          "province": "Almeria"
        }
      ],
    "pagination": {
        "page": 1,
        "totalPages": 3787,
        "totalResults": 10
    }
}